NNSS 19 [?]             
1 04507U 70067A   17346.32965351  .00000095  00000-0  11867-3 0  9991
2 04507  89.8439 259.8147 0173510 114.5869 247.3472 13.50668264328065
